{"type": "FeatureCollection", "features": [ {"type": "Feature", "properties": {"norad_id": 60453, "name": "LEGION 4", "group": "resource", "lat": 33.96134935187226, "lon": -175.34349681251143, "alt_km": 519.9728281739281, "timestamp": "2025-12-11T18:59:45.724274+00:00", "meta": {"OBJECT_NAME": "LEGION 4", "OBJECT_ID": "2024-146B", "EPOCH": "2025-12-11T05:46:52.253184", "MEAN_MOTION": 15.15799695, "ECCENTRICITY": 0.00096046, "INCLINATION": 45.0386, "RA_OF_ASC_NODE": 49.9138, "ARG_OF_PERICENTER": 303.3201, "MEAN_ANOMALY": 56.6758, "EPHEMERIS_TYPE": 0, "CLASSIFICATION_TYPE": "U", "NORAD_CAT_ID": 60453, "ELEMENT_SET_NO": 999, "REV_AT_EPOCH": 7235, "BSTAR": 0.00045966743, "MEAN_MOTION_DOT": 8.683e-05, "MEAN_MOTION_DDOT": 0}, "tle": {"line1": "1 60453U 24146B   25345.24088256  .00008683  00000+0  45967-3 0  9997", "line2": "2 60453  45.0386  49.9138 0009604 303.3201  56.6758 15.15799695 72352"}}, "geometry": {"type": "Point", "coordinates": [-175.34349681251143, 33.96134935187226]}}, {"type": "Feature", "properties": {"norad_id": 60989, "name": "SENTINEL-2C", "group": "resource", "lat": 17.664478344744715, "lon": -118.96041673636786, "alt_km": 789.0365557734294, "timestamp": "2025-12-11T18:59:45.724285+00:00", "meta": {"OBJECT_NAME": "SENTINEL-2C", "OBJECT_ID": "2024-157A", "EPOCH": "2025-12-11T04:48:53.227584", "MEAN_MOTION": 14.3081658, "ECCENTRICITY": 0.0001195, "INCLINATION": 98.5683, "RA_OF_ASC_NODE": 57.7053, "ARG_OF_PERICENTER": 97.5952, "MEAN_ANOMALY": 262.5367, "EPHEMERIS_TYPE": 0, "CLASSIFICATION_TYPE": "U", "NORAD_CAT_ID": 60989, "ELEMENT_SET_NO": 999, "REV_AT_EPOCH": 6610, "BSTAR": 0.00010288668, "MEAN_MOTION_DOT": 2.26e-06, "MEAN_MOTION_DDOT": 0}, "tle": {"line1": "1 60989U 24157A   25345.20061606  .00000226  00000+0  10289-3 0  9993", "line2": "2 60989  98.5683  57.7053 0001195  97.5952 262.5367 14.30816580 66103"}}, "geometry": {"type": "Point", "coordinates": [-118.96041673636786, 17.664478344744715]}}, {"type": "Feature", "properties": {"norad_id": 61735, "name": "IONOSFERA-M 1", "group": "resource", "lat": 79.3977705012514, "lon": 90.92570376421568, "alt_km": 808.5895930366869, "timestamp": "2025-12-11T18:59:45.724296+00:00", "meta": {"OBJECT_NAME": "IONOSFERA-M 1", "OBJECT_ID": "2024-199A", "EPOCH": "2025-12-11T06:43:53.236992", "MEAN_MOTION": 14.22713508, "ECCENTRICITY": 0.00010315, "INCLINATION": 98.7411, "RA_OF_ASC_NODE": 215.1399, "ARG_OF_PERICENTER": 24.0182, "MEAN_ANOMALY": 336.1044, "EPHEMERIS_TYPE": 0, "CLASSIFICATION_TYPE": "U", "NORAD_CAT_ID": 61735, "ELEMENT_SET_NO": 999, "REV_AT_EPOCH": 10098, "BSTAR": 6.726595e-05, "MEAN_MOTION_DOT": 1.06e-06, "MEAN_MOTION_DDOT": 0}, "tle": {"line1": "1 61735U 24199A   25345.28047728  .00000106  00000+0  67266-4 0  9991", "line2": "2 61735  98.7411 215.1399 0001031  24.0182 336.1044 14.22713508100988"}}, "geometry": {"type": "Point", "coordinates": [90.92570376421568, 79.3977705012514]}}, {"type": "Feature", "properties": {"norad_id": 61736, "name": "IONOSFERA-M 2", "group": "resource", "lat": -77.73044069193953, "lon": -99.41879130135102, "alt_km": 824.6206391146407, "timestamp": "2025-12-11T18:59:45.724307+00:00", "meta": {"OBJECT_NAME": "IONOSFERA-M 2", "OBJECT_ID": "2024-199B", "EPOCH": "2025-12-11T05:52:30.458208", "MEAN_MOTION": 14.22716614, "ECCENTRICITY": 0.00016061, "INCLINATION": 98.7403, "RA_OF_ASC_NODE": 215.017, "ARG_OF_PERICENTER": 112.6306, "MEAN_ANOMALY": 247.5042, "EPHEMERIS_TYPE": 0, "CLASSIFICATION_TYPE": "U", "NORAD_CAT_ID": 61736, "ELEMENT_SET_NO": 999, "REV_AT_EPOCH": 10410, "BSTAR": 0.00012917876, "MEAN_MOTION_DOT": 2.45e-06, "MEAN_MOTION_DDOT": 0}, "tle": {"line1": "1 61736U 24199B   25345.24479697  .00000245  00000+0  12918-3 0  9999", "line2": "2 61736  98.7403 215.0170 0001606 112.6306 247.5042 14.22716614104108"}}, "geometry": {"type": "Point", "coordinates": [-99.41879130135102, -77.73044069193953]}}, {"type": "Feature", "properties": {"norad_id": 63772, "name": "BIOMASS", "group": "resource", "lat": -41.41102355356691, "lon": 178.00316924719945, "alt_km": 675.8781250433049, "timestamp": "2025-12-11T18:59:45.724317+00:00", "meta": {"OBJECT_NAME": "BIOMASS", "OBJECT_ID": "2025-090A", "EPOCH": "2025-12-11T02:49:22.865664", "MEAN_MOTION": 14.67541407, "ECCENTRICITY": 0.00011802, "INCLINATION": 98.07, "RA_OF_ASC_NODE": 170.1509, "ARG_OF_PERICENTER": 77.1221, "MEAN_ANOMALY": 283.0116, "EPHEMERIS_TYPE": 0, "CLASSIFICATION_TYPE": "U", "NORAD_CAT_ID": 63772, "ELEMENT_SET_NO": 999, "REV_AT_EPOCH": 3310, "BSTAR": 0.00038790487, "MEAN_MOTION_DOT": 2.152e-05, "MEAN_MOTION_DDOT": 0}, "tle": {"line1": "1 63772U 25090A   25345.11762576  .00002152  00000+0  38790-3 0  9994", "line2": "2 63772  98.0700 170.1509 0001180  77.1221 283.0116 14.67541407 33101"}}, "geometry": {"type": "Point", "coordinates": [178.00316924719945, -41.41102355356691]}}, {"type": "Feature", "properties": {"norad_id": 64694, "name": "GOSAT-GW (IBUKI GW)", "group": "resource", "lat": 12.088208181514048, "lon": 103.05669885306955, "alt_km": 670.0563224951939, "timestamp": "2025-12-11T18:59:45.724327+00:00", "meta": {"OBJECT_NAME": "GOSAT-GW (IBUKI GW)", "OBJECT_ID": "2025-141A", "EPOCH": "2025-12-11T06:46:48.940896", "MEAN_MOTION": 14.67573061, "ECCENTRICITY": 0.00014875, "INCLINATION": 98.0423, "RA_OF_ASC_NODE": 280.8218, "ARG_OF_PERICENTER": 82.4768, "MEAN_ANOMALY": 277.6606, "EPHEMERIS_TYPE": 0, "CLASSIFICATION_TYPE": "U", "NORAD_CAT_ID": 64694, "ELEMENT_SET_NO": 999, "REV_AT_EPOCH": 2428, "BSTAR": 0.00045870221, "MEAN_MOTION_DOT": 2.556e-05, "MEAN_MOTION_DDOT": 0}, "tle": {"line1": "1 64694U 25141A   25345.28251089  .00002556  00000+0  45870-3 0  9990", "line2": "2 64694  98.0423 280.8218 0001487  82.4768 277.6606 14.67573061 24281"}}, "geometry": {"type": "Point", "coordinates": [103.05669885306955, 12.088208181514048]}}, {"type": "Feature", "properties": {"norad_id": 64876, "name": "IONOSFERA-M 3", "group": "resource", "lat": -32.44684024166834, "lon": -46.8089225414231, "alt_km": 826.6426108619062, "timestamp": "2025-12-11T18:59:45.724338+00:00", "meta": {"OBJECT_NAME": "IONOSFERA-M 3", "OBJECT_ID": "2025-155A", "EPOCH": "2025-12-11T07:19:28.569792", "MEAN_MOTION": 14.2144136, "ECCENTRICITY": 0.00022536, "INCLINATION": 98.578, "RA_OF_ASC_NODE": 307.2119, "ARG_OF_PERICENTER": 62.3737, "MEAN_ANOMALY": 297.7669, "EPHEMERIS_TYPE": 0, "CLASSIFICATION_TYPE": "U", "NORAD_CAT_ID": 64876, "ELEMENT_SET_NO": 999, "REV_AT_EPOCH": 1971, "BSTAR": 0.0001485079, "MEAN_MOTION_DOT": 2.82e-06, "MEAN_MOTION_DDOT": 0}, "tle": {"line1": "1 64876U 25155A   25345.30519178  .00000282  00000+0  14851-3 0  9995", "line2": "2 64876  98.5780 307.2119 0002253  62.3737 297.7669 14.21441360 19713"}}, "geometry": {"type": "Point", "coordinates": [-46.8089225414231, -32.44684024166834]}}, {"type": "Feature", "properties": {"norad_id": 64877, "name": "IONOSFERA-M 4", "group": "resource", "lat": 31.565120568860536, "lon": 132.9247849708031, "alt_km": 818.5328228173175, "timestamp": "2025-12-11T18:59:45.724348+00:00", "meta": {"OBJECT_NAME": "IONOSFERA-M 4", "OBJECT_ID": "2025-155B", "EPOCH": "2025-12-11T06:28:36.588288", "MEAN_MOTION": 14.21442499, "ECCENTRICITY": 0.00016172, "INCLINATION": 98.578, "RA_OF_ASC_NODE": 307.0972, "ARG_OF_PERICENTER": 64.9788, "MEAN_ANOMALY": 295.1557, "EPHEMERIS_TYPE": 0, "CLASSIFICATION_TYPE": "U", "NORAD_CAT_ID": 64877, "ELEMENT_SET_NO": 999, "REV_AT_EPOCH": 1970, "BSTAR": 0.00015564426, "MEAN_MOTION_DOT": 2.98e-06, "MEAN_MOTION_DDOT": 0}, "tle": {"line1": "1 64877U 25155B   25345.26986792  .00000298  00000+0  15564-3 0  9990", "line2": "2 64877  98.5780 307.0972 0001617  64.9788 295.1557 14.21442499 19707"}}, "geometry": {"type": "Point", "coordinates": [132.9247849708031, 31.565120568860536]}}, {"type": "Feature", "properties": {"norad_id": 64899, "name": "MICROCARB", "group": "resource", "lat": 49.34156812218981, "lon": -109.42038458708849, "alt_km": 638.6243617995797, "timestamp": "2025-12-11T18:59:45.724359+00:00", "meta": {"OBJECT_NAME": "MICROCARB", "OBJECT_ID": "2025-156A", "EPOCH": "2025-12-11T05:21:25.661952", "MEAN_MOTION": 14.72052934, "ECCENTRICITY": 0.00170444, "INCLINATION": 98.0027, "RA_OF_ASC_NODE": 60.593, "ARG_OF_PERICENTER": 149.3859, "MEAN_ANOMALY": 210.8346, "EPHEMERIS_TYPE": 0, "CLASSIFICATION_TYPE": "U", "NORAD_CAT_ID": 64899, "ELEMENT_SET_NO": 999, "REV_AT_EPOCH": 2031, "BSTAR": 0.00018479872, "MEAN_MOTION_DOT": 1.114e-05, "MEAN_MOTION_DDOT": 0}, "tle": {"line1": "1 64899U 25156A   25345.22321368  .00001114  00000+0  18480-3 0  9991", "line2": "2 64899  98.0027  60.5930 0017044 149.3859 210.8346 14.72052934 20319"}}, "geometry": {"type": "Point", "coordinates": [-109.42038458708849, 49.34156812218981]}}, {"type": "Feature", "properties": {"norad_id": 64900, "name": "CO3D 3", "group": "resource", "lat": 7.3617034370893, "lon": 61.20547313667588, "alt_km": 507.15585188041405, "timestamp": "2025-12-11T18:59:45.724369+00:00", "meta": {"OBJECT_NAME": "CO3D 3", "OBJECT_ID": "2025-156B", "EPOCH": "2025-12-11T06:19:33.214368", "MEAN_MOTION": 15.20237572, "ECCENTRICITY": 0.00013821, "INCLINATION": 97.4338, "RA_OF_ASC_NODE": 61.6517, "ARG_OF_PERICENTER": 101.0239, "MEAN_ANOMALY": 259.1152, "EPHEMERIS_TYPE": 0, "CLASSIFICATION_TYPE": "U", "NORAD_CAT_ID": 64900, "ELEMENT_SET_NO": 999, "REV_AT_EPOCH": 2098, "BSTAR": 0.0010757644, "MEAN_MOTION_DOT": 0.00023318, "MEAN_MOTION_DDOT": 0}, "tle": {"line1": "1 64900U 25156B   25345.26357887  .00023318  00000+0  10758-2 0  9992", "line2": "2 64900  97.4338  61.6517 0001382 101.0239 259.1152 15.20237572 20989"}}, "geometry": {"type": "Point", "coordinates": [61.20547313667588, 7.3617034370893]}}]}